start=new Date('2022-05-19T00:00:00.000Z').valueOf();
sats=[{"ELEMENT_SET_NO":"999","MEAN_MOTION":"14.98313302","OBJECT_TYPE":"PAYLOAD","SITE":"AFWTR","PERIAPSIS":"569.850","MEAN_MOTION_DOT":"0.00002056","GP_ID":"203906304","APOAPSIS":"574.369","LAUNCH_DATE":"2021-09-14","SEMIMAJOR_AXIS":"6950.245","REF_FRAME":"TEME","CENTER_NAME":"EARTH","MEAN_ELEMENT_THEORY":"SGP4","FILE":"3452356","REV_AT_EPOCH":"130","NORAD_CAT_ID":"49162","RCS_SIZE":"LARGE","TIME_SYSTEM":"UTC","EPOCH":"2022-05-18T22:00:00.999936","ECCENTRICITY":"0.00032510","ARG_OF_PERICENTER":"276.6545","RA_OF_ASC_NODE":"201.0761","MEAN_MOTION_DDOT":"0.0000000000000","TLE_LINE2":"2 49162  69.9989 201.0761 0003251 276.6545   9.9593 14.98313302  1300","OBJECT_NAME":"STARLINK-3082","DECAY_DATE":null,"INCLINATION":"69.9989","OBJECT_ID":"2021-082AJ","CLASSIFICATION_TYPE":"U","BSTAR":"0.00018014000000","EPHEMERIS_TYPE":"0","MEAN_ANOMALY":"9.9593","TLE_LINE1":"1 49162U 21082AJ  22138.91667824  .00002056  00000-0  18014-3 0  9994","PERIOD":"96.108","COUNTRY_CODE":"US"},{"GP_ID":"203877156","MEAN_MOTION_DOT":"0.00052631","PERIAPSIS":"574.933","REF_FRAME":"TEME","SEMIMAJOR_AXIS":"6955.266","APOAPSIS":"579.330","LAUNCH_DATE":"2021-09-14","MEAN_MOTION":"14.96690860","ELEMENT_SET_NO":"999","SITE":"AFWTR","OBJECT_TYPE":"PAYLOAD","REV_AT_EPOCH":"3933","TIME_SYSTEM":"UTC","RCS_SIZE":"LARGE","NORAD_CAT_ID":"49163","CENTER_NAME":"EARTH","FILE":"3452103","MEAN_ELEMENT_THEORY":"SGP4","MEAN_MOTION_DDOT":"0.0000000000000","TLE_LINE2":"2 49163  70.0003 180.4458 0003161 271.1689  26.1021 14.96690860 39339","DECAY_DATE":null,"OBJECT_NAME":"STARLINK-3088","ECCENTRICITY":"0.00031610","EPOCH":"2022-05-18T22:00:00.999936","RA_OF_ASC_NODE":"180.4458","ARG_OF_PERICENTER":"271.1689","EPHEMERIS_TYPE":"0","COUNTRY_CODE":"US","TLE_LINE1":"1 49163U 21082AK  22138.91667824  .00052631  00000-0  45746-2 0  9990","PERIOD":"96.212","MEAN_ANOMALY":"26.1021","CLASSIFICATION_TYPE":"U","OBJECT_ID":"2021-082AK","INCLINATION":"70.0003","BSTAR":"0.00457460000000"},{"OBJECT_TYPE":"PAYLOAD","SITE":"AFWTR","ELEMENT_SET_NO":"999","MEAN_MOTION":"14.96666441","APOAPSIS":"579.440","LAUNCH_DATE":"2021-09-14","REF_FRAME":"TEME","SEMIMAJOR_AXIS":"6955.342","GP_ID":"203907806","MEAN_MOTION_DOT":"0.00052185","PERIAPSIS":"574.974","MEAN_ELEMENT_THEORY":"SGP4","FILE":"3452356","CENTER_NAME":"EARTH","NORAD_CAT_ID":"49164","TIME_SYSTEM":"UTC","RCS_SIZE":"LARGE","REV_AT_EPOCH":"130","ARG_OF_PERICENTER":"275.6172","RA_OF_ASC_NODE":"180.4346","EPOCH":"2022-05-18T22:00:00.999936","ECCENTRICITY":"0.00032110","DECAY_DATE":null,"OBJECT_NAME":"STARLINK-3106","TLE_LINE2":"2 49164  70.0000 180.4346 0003211 275.6172  74.0390 14.96666441  1300","MEAN_MOTION_DDOT":"0.0000000000000","BSTAR":"0.00453900000000","INCLINATION":"70.0000","CLASSIFICATION_TYPE":"U","OBJECT_ID":"2021-082AL","MEAN_ANOMALY":"74.0390","COUNTRY_CODE":"US","PERIOD":"96.214","TLE_LINE1":"1 49164U 21082AL  22138.91667824  .00052185  00000-0  45390-2 0  9990","EPHEMERIS_TYPE":"0"},{"RA_OF_ASC_NODE":"200.2344","ARG_OF_PERICENTER":"273.0699","ECCENTRICITY":"0.00032360","EPOCH":"2022-05-19T06:00:00.999648","DECAY_DATE":null,"OBJECT_NAME":"STARLINK-3052","TLE_LINE2":"2 49165  69.9991 200.2344 0003236 273.0699  36.7204 14.98363140 38917","MEAN_MOTION_DDOT":"0.0000000000000","BSTAR":"-0.00590970000000","CLASSIFICATION_TYPE":"U","OBJECT_ID":"2021-082AM","INCLINATION":"69.9991","COUNTRY_CODE":"US","PERIOD":"96.105","TLE_LINE1":"1 49165U 21082AM  22139.25001157 -.00069969  00000-0 -59097-2 0  9999","MEAN_ANOMALY":"36.7204","EPHEMERIS_TYPE":"0","SITE":"AFWTR","OBJECT_TYPE":"PAYLOAD","MEAN_MOTION":"14.98363140","ELEMENT_SET_NO":"999","REF_FRAME":"TEME","SEMIMAJOR_AXIS":"6950.090","LAUNCH_DATE":"2021-09-14","APOAPSIS":"574.204","GP_ID":"203912155","MEAN_MOTION_DOT":"-0.00069969","PERIAPSIS":"569.706","FILE":"3452526","MEAN_ELEMENT_THEORY":"SGP4","CENTER_NAME":"EARTH","TIME_SYSTEM":"UTC","RCS_SIZE":"LARGE","NORAD_CAT_ID":"49165","REV_AT_EPOCH":"3891"},{"COUNTRY_CODE":"US","PERIOD":"96.208","TLE_LINE1":"1 49166U 21082AN  22139.25001157 -.00084122  00000-0 -74211-2 0  9993","MEAN_ANOMALY":"52.1195","EPHEMERIS_TYPE":"0","BSTAR":"-0.00742110000000","CLASSIFICATION_TYPE":"U","OBJECT_ID":"2021-082AN","INCLINATION":"69.9994","DECAY_DATE":null,"OBJECT_NAME":"STARLINK-3089","TLE_LINE2":"2 49166  69.9994 179.6011 0003375 266.8016  52.1195 14.96762692 39418","MEAN_MOTION_DDOT":"0.0000000000000","RA_OF_ASC_NODE":"179.6011","ARG_OF_PERICENTER":"266.8016","ECCENTRICITY":"0.00033750","EPOCH":"2022-05-19T06:00:00.999648","TIME_SYSTEM":"UTC","RCS_SIZE":"LARGE","NORAD_CAT_ID":"49166","REV_AT_EPOCH":"3941","FILE":"3452846","MEAN_ELEMENT_THEORY":"SGP4","CENTER_NAME":"EARTH","REF_FRAME":"TEME","SEMIMAJOR_AXIS":"6955.044","LAUNCH_DATE":"2021-09-14","APOAPSIS":"579.256","GP_ID":"203920182","MEAN_MOTION_DOT":"-0.00084122","PERIAPSIS":"574.562","SITE":"AFWTR","OBJECT_TYPE":"PAYLOAD","MEAN_MOTION":"14.96762692","ELEMENT_SET_NO":"999"},{"RA_OF_ASC_NODE":"201.0799","ARG_OF_PERICENTER":"271.2864","ECCENTRICITY":"0.00031300","EPOCH":"2022-05-18T22:00:00.999936","DECAY_DATE":null,"OBJECT_NAME":"STARLINK-3054","MEAN_MOTION_DDOT":"0.0000000000000","TLE_LINE2":"2 49167  70.0007 201.0799 0003130 271.2864  66.7371 14.98321977  1303","BSTAR":"0.00015373000000","CLASSIFICATION_TYPE":"U","OBJECT_ID":"2021-082AP","INCLINATION":"70.0007","COUNTRY_CODE":"US","PERIOD":"96.108","TLE_LINE1":"1 49167U 21082AP  22138.91667824  .00001741  00000-0  15373-3 0  9994","MEAN_ANOMALY":"66.7371","EPHEMERIS_TYPE":"0","SITE":"AFWTR","OBJECT_TYPE":"PAYLOAD","MEAN_MOTION":"14.98321977","ELEMENT_SET_NO":"999","REF_FRAME":"TEME","SEMIMAJOR_AXIS":"6950.218","LAUNCH_DATE":"2021-09-14","APOAPSIS":"574.258","GP_ID":"203907056","MEAN_MOTION_DOT":"0.00001741","PERIAPSIS":"569.907","FILE":"3452356","MEAN_ELEMENT_THEORY":"SGP4","CENTER_NAME":"EARTH","TIME_SYSTEM":"UTC","RCS_SIZE":"LARGE","NORAD_CAT_ID":"49167","REV_AT_EPOCH":"130"},{"BSTAR":"0.00110030000000","OBJECT_ID":"2021-082AQ","CLASSIFICATION_TYPE":"U","INCLINATION":"69.9995","TLE_LINE1":"1 49168U 21082AQ  22138.91667824  .00012517  00000-0  11003-2 0  9993","PERIOD":"96.212","COUNTRY_CODE":"US","MEAN_ANOMALY":"135.5358","EPHEMERIS_TYPE":"0","RA_OF_ASC_NODE":"180.4435","ARG_OF_PERICENTER":"266.5713","ECCENTRICITY":"0.00031770","EPOCH":"2022-05-18T22:00:00.999936","OBJECT_NAME":"STARLINK-3101","DECAY_DATE":null,"MEAN_MOTION_DDOT":"0.0000000000000","TLE_LINE2":"2 49168  69.9995 180.4435 0003177 266.5713 135.5358 14.96692835  1307","FILE":"3452356","MEAN_ELEMENT_THEORY":"SGP4","CENTER_NAME":"EARTH","RCS_SIZE":"LARGE","TIME_SYSTEM":"UTC","NORAD_CAT_ID":"49168","REV_AT_EPOCH":"130","SITE":"AFWTR","OBJECT_TYPE":"PAYLOAD","MEAN_MOTION":"14.96692835","ELEMENT_SET_NO":"999","SEMIMAJOR_AXIS":"6955.260","REF_FRAME":"TEME","LAUNCH_DATE":"2021-09-14","APOAPSIS":"579.335","PERIAPSIS":"574.916","MEAN_MOTION_DOT":"0.00012517","GP_ID":"203907307"},{"ELEMENT_SET_NO":"999","MEAN_MOTION":"14.96714560","OBJECT_TYPE":"PAYLOAD","SITE":"AFWTR","MEAN_MOTION_DOT":"0.00007383","PERIAPSIS":"574.618","GP_ID":"203906055","LAUNCH_DATE":"2021-09-14","APOAPSIS":"579.498","SEMIMAJOR_AXIS":"6955.193","REF_FRAME":"TEME","CENTER_NAME":"EARTH","MEAN_ELEMENT_THEORY":"SGP4","FILE":"3452356","REV_AT_EPOCH":"130","NORAD_CAT_ID":"49169","RCS_SIZE":"LARGE","TIME_SYSTEM":"UTC","EPOCH":"2022-05-18T22:00:00.999936","ECCENTRICITY":"0.00035080","ARG_OF_PERICENTER":"267.0934","RA_OF_ASC_NODE":"180.4414","MEAN_MOTION_DDOT":"0.0000000000000","TLE_LINE2":"2 49169  70.0000 180.4414 0003508 267.0934 108.7302 14.96714560  1305","OBJECT_NAME":"STARLINK-3046","DECAY_DATE":null,"INCLINATION":"70.0000","OBJECT_ID":"2021-082AR","CLASSIFICATION_TYPE":"U","BSTAR":"0.00065240000000","EPHEMERIS_TYPE":"0","MEAN_ANOMALY":"108.7302","TLE_LINE1":"1 49169U 21082AR  22138.91667824  .00007383  00000-0  65240-3 0  9992","PERIOD":"96.211","COUNTRY_CODE":"US"},{"MEAN_MOTION_DOT":"-0.00001962","PERIAPSIS":"569.899","GP_ID":"203906305","SEMIMAJOR_AXIS":"6950.216","REF_FRAME":"TEME","LAUNCH_DATE":"2021-09-14","APOAPSIS":"574.264","MEAN_MOTION":"14.98322454","ELEMENT_SET_NO":"999","SITE":"AFWTR","OBJECT_TYPE":"PAYLOAD","REV_AT_EPOCH":"130","RCS_SIZE":"LARGE","TIME_SYSTEM":"UTC","NORAD_CAT_ID":"49170","CENTER_NAME":"EARTH","FILE":"3452356","MEAN_ELEMENT_THEORY":"SGP4","TLE_LINE2":"2 49170  69.9996 201.0769 0003140 274.5439 203.0813 14.98322454  1301","MEAN_MOTION_DDOT":"0.0000000000000","OBJECT_NAME":"STARLINK-3074","DECAY_DATE":null,"ECCENTRICITY":"0.00031400","EPOCH":"2022-05-18T22:00:00.999936","RA_OF_ASC_NODE":"201.0769","ARG_OF_PERICENTER":"274.5439","EPHEMERIS_TYPE":"0","PERIOD":"96.107","TLE_LINE1":"1 49170U 21082AS  22138.91667824 -.00001962  00000-0 -15669-3 0  9993","COUNTRY_CODE":"US","MEAN_ANOMALY":"203.0813","OBJECT_ID":"2021-082AS","CLASSIFICATION_TYPE":"U","INCLINATION":"69.9996","BSTAR":"-0.00015669000000"},{"MEAN_ANOMALY":"95.6946","TLE_LINE1":"1 49171U 21082AT  22139.25001157 -.00022196  00000-0 -18573-2 0  9991","PERIOD":"96.106","COUNTRY_CODE":"US","EPHEMERIS_TYPE":"0","BSTAR":"-0.00185730000000","INCLINATION":"70.0003","OBJECT_ID":"2021-082AT","CLASSIFICATION_TYPE":"U","OBJECT_NAME":"STARLINK-3107","DECAY_DATE":null,"TLE_LINE2":"2 49171  70.0003 200.2425 0003344 276.4910  95.6946 14.98349263 38865","MEAN_MOTION_DDOT":"0.0000000000000","ARG_OF_PERICENTER":"276.4910","RA_OF_ASC_NODE":"200.2425","EPOCH":"2022-05-19T06:00:00.999648","ECCENTRICITY":"0.00033440","NORAD_CAT_ID":"49171","RCS_SIZE":"LARGE","TIME_SYSTEM":"UTC","REV_AT_EPOCH":"3886","MEAN_ELEMENT_THEORY":"SGP4","FILE":"3452635","CENTER_NAME":"EARTH","APOAPSIS":"574.322","LAUNCH_DATE":"2021-09-14","SEMIMAJOR_AXIS":"6950.133","REF_FRAME":"TEME","MEAN_MOTION_DOT":"-0.00022196","PERIAPSIS":"569.674","GP_ID":"203914798","OBJECT_TYPE":"PAYLOAD","SITE":"AFWTR","ELEMENT_SET_NO":"999","MEAN_MOTION":"14.98349263"}];
